{"type": "FeatureCollection", "features": [ {"type": "Feature", "properties": {"norad_id": 66890, "name": "STARLINK-35885", "group": "last-30-days", "lat": 43.70069696410732, "lon": 134.45445183764213, "alt_km": 405.60769838470605, "timestamp": "2025-12-27T13:34:48.008141+00:00", "meta": {"OBJECT_NAME": "STARLINK-35885", "OBJECT_ID": "2025-283N", "EPOCH": "2025-12-27T06:00:02.000160", "MEAN_MOTION": 15.53019025, "ECCENTRICITY": 0.0001384, "INCLINATION": 53.1598, "RA_OF_ASC_NODE": 1.7357, "ARG_OF_PERICENTER": 74.1181, "MEAN_ANOMALY": 80.2648, "EPHEMERIS_TYPE": 0, "CLASSIFICATION_TYPE": "U", "NORAD_CAT_ID": 66890, "ELEMENT_SET_NO": 999, "REV_AT_EPOCH": 476, "BSTAR": -0.036298043, "MEAN_MOTION_DOT": -0.02054674, "MEAN_MOTION_DDOT": 0}, "tle": {"line1": "1 66890U 25283N   25361.25002315 -.02054674  00000+0 -36298-1 0  9992", "line2": "2 66890  53.1598   1.7357 0001384  74.1181  80.2648 15.53019025  4769"}}, "geometry": {"type": "Point", "coordinates": [134.45445183764213, 43.70069696410732]}}, {"type": "Feature", "properties": {"norad_id": 66891, "name": "STARLINK-35855", "group": "last-30-days", "lat": 42.60885368941114, "lon": 136.6137427389623, "alt_km": 405.7109332651571, "timestamp": "2025-12-27T13:34:48.008152+00:00", "meta": {"OBJECT_NAME": "STARLINK-35855", "OBJECT_ID": "2025-283P", "EPOCH": "2025-12-27T06:00:02.000160", "MEAN_MOTION": 15.53013699, "ECCENTRICITY": 0.0001562, "INCLINATION": 53.1596, "RA_OF_ASC_NODE": 1.7317, "ARG_OF_PERICENTER": 73.7874, "MEAN_ANOMALY": 82.5117, "EPHEMERIS_TYPE": 0, "CLASSIFICATION_TYPE": "U", "NORAD_CAT_ID": 66891, "ELEMENT_SET_NO": 999, "REV_AT_EPOCH": 476, "BSTAR": -0.036122883, "MEAN_MOTION_DOT": -0.02045585, "MEAN_MOTION_DDOT": 0}, "tle": {"line1": "1 66891U 25283P   25361.25002315 -.02045585  00000+0 -36123-1 0  9991", "line2": "2 66891  53.1596   1.7317 0001562  73.7874  82.5117 15.53013699  4763"}}, "geometry": {"type": "Point", "coordinates": [136.6137427389623, 42.60885368941114]}}, {"type": "Feature", "properties": {"norad_id": 66892, "name": "STARLINK-35883", "group": "last-30-days", "lat": 41.47653253730335, "lon": 138.69969586685832, "alt_km": 405.8868681010026, "timestamp": "2025-12-27T13:34:48.008161+00:00", "meta": {"OBJECT_NAME": "STARLINK-35883", "OBJECT_ID": "2025-283Q", "EPOCH": "2025-12-27T06:00:02.000160", "MEAN_MOTION": 15.53017089, "ECCENTRICITY": 0.00014864, "INCLINATION": 53.1598, "RA_OF_ASC_NODE": 1.7273, "ARG_OF_PERICENTER": 79.8558, "MEAN_ANOMALY": 78.3633, "EPHEMERIS_TYPE": 0, "CLASSIFICATION_TYPE": "U", "NORAD_CAT_ID": 66892, "ELEMENT_SET_NO": 999, "REV_AT_EPOCH": 470, "BSTAR": -0.036289777, "MEAN_MOTION_DOT": -0.02054191, "MEAN_MOTION_DDOT": 0}, "tle": {"line1": "1 66892U 25283Q   25361.25002315 -.02054191  00000+0 -36290-1 0  9990", "line2": "2 66892  53.1598   1.7273 0001486  79.8558  78.3633 15.53017089  4705"}}, "geometry": {"type": "Point", "coordinates": [138.69969586685832, 41.47653253730335]}}, {"type": "Feature", "properties": {"norad_id": 66893, "name": "STARLINK-36033", "group": "last-30-days", "lat": 40.3088910385059, "lon": 140.71082227294892, "alt_km": 406.1739344545722, "timestamp": "2025-12-27T13:34:48.008173+00:00", "meta": {"OBJECT_NAME": "STARLINK-36033", "OBJECT_ID": "2025-283R", "EPOCH": "2025-12-27T06:00:02.000160", "MEAN_MOTION": 15.53014786, "ECCENTRICITY": 0.00014078, "INCLINATION": 53.1599, "RA_OF_ASC_NODE": 1.7232, "ARG_OF_PERICENTER": 75.3752, "MEAN_ANOMALY": 84.7604, "EPHEMERIS_TYPE": 0, "CLASSIFICATION_TYPE": "U", "NORAD_CAT_ID": 66893, "ELEMENT_SET_NO": 999, "REV_AT_EPOCH": 476, "BSTAR": -0.036194152, "MEAN_MOTION_DOT": -0.0204916, "MEAN_MOTION_DDOT": 0}, "tle": {"line1": "1 66893U 25283R   25361.25002315 -.02049160  00000+0 -36194-1 0  9994", "line2": "2 66893  53.1599   1.7232 0001407  75.3752  84.7604 15.53014786  4768"}}, "geometry": {"type": "Point", "coordinates": [140.71082227294892, 40.3088910385059]}}, {"type": "Feature", "properties": {"norad_id": 66894, "name": "STARLINK-35718", "group": "last-30-days", "lat": 39.10779251298003, "lon": 142.65325296662672, "alt_km": 406.29920275274617, "timestamp": "2025-12-27T13:34:48.008183+00:00", "meta": {"OBJECT_NAME": "STARLINK-35718", "OBJECT_ID": "2025-283S", "EPOCH": "2025-12-27T06:00:02.000160", "MEAN_MOTION": 15.53013433, "ECCENTRICITY": 0.00016155, "INCLINATION": 53.1601, "RA_OF_ASC_NODE": 1.7202, "ARG_OF_PERICENTER": 74.6642, "MEAN_ANOMALY": 87.3847, "EPHEMERIS_TYPE": 0, "CLASSIFICATION_TYPE": "U", "NORAD_CAT_ID": 66894, "ELEMENT_SET_NO": 999, "REV_AT_EPOCH": 476, "BSTAR": -0.036098724, "MEAN_MOTION_DOT": -0.02044379, "MEAN_MOTION_DDOT": 0}, "tle": {"line1": "1 66894U 25283S   25361.25002315 -.02044379  00000+0 -36099-1 0  9996", "line2": "2 66894  53.1601   1.7202 0001615  74.6642  87.3847 15.53013433  4767"}}, "geometry": {"type": "Point", "coordinates": [142.65325296662672, 39.10779251298003]}}, {"type": "Feature", "properties": {"norad_id": 66895, "name": "STARLINK-35971", "group": "last-30-days", "lat": 36.61254303242316, "lon": 146.3407743241573, "alt_km": 406.6922159338492, "timestamp": "2025-12-27T13:34:48.008193+00:00", "meta": {"OBJECT_NAME": "STARLINK-35971", "OBJECT_ID": "2025-283T", "EPOCH": "2025-12-27T06:00:02.000160", "MEAN_MOTION": 15.53015892, "ECCENTRICITY": 0.00015326, "INCLINATION": 53.1599, "RA_OF_ASC_NODE": 1.71, "ARG_OF_PERICENTER": 82.4946, "MEAN_ANOMALY": 83.3903, "EPHEMERIS_TYPE": 0, "CLASSIFICATION_TYPE": "U", "NORAD_CAT_ID": 66895, "ELEMENT_SET_NO": 999, "REV_AT_EPOCH": 476, "BSTAR": -0.036217784, "MEAN_MOTION_DOT": -0.02050506, "MEAN_MOTION_DDOT": 0}, "tle": {"line1": "1 66895U 25283T   25361.25002315 -.02050506  00000+0 -36218-1 0  9999", "line2": "2 66895  53.1599   1.7100 0001532  82.4946  83.3903 15.53015892  4763"}}, "geometry": {"type": "Point", "coordinates": [146.3407743241573, 36.61254303242316]}}, {"type": "Feature", "properties": {"norad_id": 66896, "name": "STARLINK-35791", "group": "last-30-days", "lat": 37.874278853945604, "lon": 144.5272523127217, "alt_km": 406.6377005320337, "timestamp": "2025-12-27T13:34:48.008205+00:00", "meta": {"OBJECT_NAME": "STARLINK-35791", "OBJECT_ID": "2025-283U", "EPOCH": "2025-12-27T06:00:02.000160", "MEAN_MOTION": 15.53017043, "ECCENTRICITY": 0.00014376, "INCLINATION": 53.1593, "RA_OF_ASC_NODE": 1.7146, "ARG_OF_PERICENTER": 71.1468, "MEAN_ANOMALY": 92.8177, "EPHEMERIS_TYPE": 0, "CLASSIFICATION_TYPE": "U", "NORAD_CAT_ID": 66896, "ELEMENT_SET_NO": 999, "REV_AT_EPOCH": 476, "BSTAR": -0.036176548, "MEAN_MOTION_DOT": -0.02048441, "MEAN_MOTION_DDOT": 0}, "tle": {"line1": "1 66896U 25283U   25361.25002315 -.02048441  00000+0 -36177-1 0  9999", "line2": "2 66896  53.1593   1.7146 0001437  71.1468  92.8177 15.53017043  4764"}}, "geometry": {"type": "Point", "coordinates": [144.5272523127217, 37.874278853945604]}}, {"type": "Feature", "properties": {"norad_id": 66897, "name": "STARLINK-36079", "group": "last-30-days", "lat": 35.324909334606154, "lon": 148.09425789881192, "alt_km": 407.10057476891416, "timestamp": "2025-12-27T13:34:48.008215+00:00", "meta": {"OBJECT_NAME": "STARLINK-36079", "OBJECT_ID": "2025-283V", "EPOCH": "2025-12-27T06:00:02.000160", "MEAN_MOTION": 15.53015406, "ECCENTRICITY": 0.0001391, "INCLINATION": 53.1598, "RA_OF_ASC_NODE": 1.7066, "ARG_OF_PERICENTER": 72.429, "MEAN_ANOMALY": 95.37, "EPHEMERIS_TYPE": 0, "CLASSIFICATION_TYPE": "U", "NORAD_CAT_ID": 66897, "ELEMENT_SET_NO": 999, "REV_AT_EPOCH": 476, "BSTAR": -0.03614831, "MEAN_MOTION_DOT": -0.02046876, "MEAN_MOTION_DDOT": 0}, "tle": {"line1": "1 66897U 25283V   25361.25002315 -.02046876  00000+0 -36148-1 0  9998", "line2": "2 66897  53.1598   1.7066 0001391  72.4290  95.3700 15.53015406  4768"}}, "geometry": {"type": "Point", "coordinates": [148.09425789881192, 35.324909334606154]}}, {"type": "Feature", "properties": {"norad_id": 66898, "name": "STARLINK-36065", "group": "last-30-days", "lat": 34.010864588614446, "lon": 149.79384851957403, "alt_km": 407.2871600400913, "timestamp": "2025-12-27T13:34:48.008229+00:00", "meta": {"OBJECT_NAME": "STARLINK-36065", "OBJECT_ID": "2025-283W", "EPOCH": "2025-12-27T06:00:02.000160", "MEAN_MOTION": 15.53016051, "ECCENTRICITY": 0.00014246, "INCLINATION": 53.1598, "RA_OF_ASC_NODE": 1.7025, "ARG_OF_PERICENTER": 75.8545, "MEAN_ANOMALY": 93.863, "EPHEMERIS_TYPE": 0, "CLASSIFICATION_TYPE": "U", "NORAD_CAT_ID": 66898, "ELEMENT_SET_NO": 999, "REV_AT_EPOCH": 476, "BSTAR": -0.036188404, "MEAN_MOTION_DOT": -0.02048965, "MEAN_MOTION_DDOT": 0}, "tle": {"line1": "1 66898U 25283W   25361.25002315 -.02048965  00000+0 -36188-1 0  9994", "line2": "2 66898  53.1598   1.7025 0001424  75.8545  93.8630 15.53016051  4763"}}, "geometry": {"type": "Point", "coordinates": [149.79384851957403, 34.010864588614446]}}, {"type": "Feature", "properties": {"norad_id": 66899, "name": "STARLINK-36064", "group": "last-30-days", "lat": 32.674680819335336, "lon": 151.44033731540856, "alt_km": 407.4778449761998, "timestamp": "2025-12-27T13:34:48.008241+00:00", "meta": {"OBJECT_NAME": "STARLINK-36064", "OBJECT_ID": "2025-283X", "EPOCH": "2025-12-27T06:00:02.000160", "MEAN_MOTION": 15.53013306, "ECCENTRICITY": 0.00015975, "INCLINATION": 53.1594, "RA_OF_ASC_NODE": 1.6989, "ARG_OF_PERICENTER": 75.333, "MEAN_ANOMALY": 96.3009, "EPHEMERIS_TYPE": 0, "CLASSIFICATION_TYPE": "U", "NORAD_CAT_ID": 66899, "ELEMENT_SET_NO": 999, "REV_AT_EPOCH": 470, "BSTAR": -0.036103682, "MEAN_MOTION_DOT": -0.02044611, "MEAN_MOTION_DDOT": 0}, "tle": {"line1": "1 66899U 25283X   25361.25002315 -.02044611  00000+0 -36104-1 0  9997", "line2": "2 66899  53.1594   1.6989 0001597  75.3330  96.3009 15.53013306  4708"}}, "geometry": {"type": "Point", "coordinates": [151.44033731540856, 32.674680819335336]}}]}